{
  "norad_id": 41866,
  "name": "GOES 16",
  "history": [
    {
      "epoch": "2026-03-28T15:59:58.320672Z",
      "apogee_km": 35795.893090638434,
      "perigee_km": 35777.43924288447,
      "latitude_deg": -0.11446414642814914,
      "longitude_deg": -104.68483901275405,
      "height_km": 35776.950828122885,
      "semi_major_axis_km": 42164.803166761456,
      "eccentricity": 0.00021883,
      "inclination_deg": 0.1579,
      "raan_deg": 85.4996,
      "arg_perigee_deg": 233.0864,
      "mean_anomaly_deg": 2.7816,
      "mean_motion_rev_day": 1.00271531
    },
    {
      "epoch": "2026-03-29T03:58:39.387360Z",
      "apogee_km": 35795.827779313724,
      "perigee_km": 35777.46923170462,
      "latitude_deg": 0.1147596527504693,
      "longitude_deg": -104.68726963847688,
      "height_km": 35795.30223802763,
      "semi_major_axis_km": 42164.78550550917,
      "eccentricity": 0.0002177,
      "inclination_deg": 0.1593,
      "raan_deg": 85.487,
      "arg_perigee_deg": 233.9683,
      "mean_anomaly_deg": 182.0751,
      "mean_motion_rev_day": 1.00271594
    },
    {
      "epoch": "2026-03-30T05:34:08.158368Z",
      "apogee_km": 35795.568134810535,
      "perigee_km": 35777.65654929004,
      "latitude_deg": 0.14929190672510548,
      "longitude_deg": -104.69823528553954,
      "height_km": 35794.20904507674,
      "semi_major_axis_km": 42164.749342050294,
      "eccentricity": 0.0002124,
      "inclination_deg": 0.1622,
      "raan_deg": 85.4469,
      "arg_perigee_deg": 235.8295,
      "mean_anomaly_deg": 205.1748,
      "mean_motion_rev_day": 1.00271723
    },
    {
      "epoch": "2026-03-30T05:34:08.159232Z",
      "apogee_km": 35795.568978105526,
      "perigee_km": 35777.65570599506,
      "latitude_deg": 0.149291992935126,
      "longitude_deg": -104.69813989831133,
      "height_km": 35794.20980363092,
      "semi_major_axis_km": 42164.749342050294,
      "eccentricity": 0.00021242,
      "inclination_deg": 0.1622,
      "raan_deg": 85.4469,
      "arg_perigee_deg": 235.8295,
      "mean_anomaly_deg": 205.1749,
      "mean_motion_rev_day": 1.00271723
    },
    {
      "epoch": "2026-03-30T10:47:01.068288Z",
      "apogee_km": 35795.48705832233,
      "perigee_km": 35777.721366259946,
      "latitude_deg": 0.07913426097627713,
      "longitude_deg": -104.71134806019299,
      "height_km": 35784.0681435527,
      "semi_major_axis_km": 42164.74121229114,
      "eccentricity": 0.00021067,
      "inclination_deg": 0.1628,
      "raan_deg": 85.4401,
      "arg_perigee_deg": 236.0641,
      "mean_anomaly_deg": 283.382,
      "mean_motion_rev_day": 1.00271752
    },
    {
      "epoch": "2026-03-30T21:03:01.877184Z",
      "apogee_km": 35795.40542740643,
      "perigee_km": 35777.78057026692,
      "latitude_deg": -0.13040913415069721,
      "longitude_deg": -104.66582172919381,
      "height_km": 35784.067577043155,
      "semi_major_axis_km": 42164.72999883668,
      "eccentricity": 0.000209,
      "inclination_deg": 0.1639,
      "raan_deg": 85.4201,
      "arg_perigee_deg": 236.9719,
      "mean_anomaly_deg": 76.919,
      "mean_motion_rev_day": 1.00271792
    },
    {
      "epoch": "2026-03-31T15:52:36.571296Z",
      "apogee_km": 35795.18258913554,
      "perigee_km": 35777.94565931595,
      "latitude_deg": -0.11539823407790568,
      "longitude_deg": -104.69128492564624,
      "height_km": 35777.45164421128,
      "semi_major_axis_km": 42164.70112422574,
      "eccentricity": 0.0002044,
      "inclination_deg": 0.1655,
      "raan_deg": 85.3817,
      "arg_perigee_deg": 238.3016,
      "mean_anomaly_deg": 358.7962,
      "mean_motion_rev_day": 1.00271895
    },
    {
      "epoch": "2026-04-01T15:50:05.760960Z",
      "apogee_km": 35794.950757462764,
      "perigee_km": 35778.11862052452,
      "latitude_deg": -0.11634946016764348,
      "longitude_deg": -104.69391975952196,
      "height_km": 35777.634991738974,
      "semi_major_axis_km": 42164.67168899364,
      "eccentricity": 0.0001996,
      "inclination_deg": 0.1679,
      "raan_deg": 85.3528,
      "arg_perigee_deg": 240.2807,
      "mean_anomaly_deg": 357.2026,
      "mean_motion_rev_day": 1.00272
    },
    {
      "epoch": "2026-04-02T15:18:08.919936Z",
      "apogee_km": 35794.73072372644,
      "perigee_km": 35778.28651193549,
      "latitude_deg": -0.10374884106365623,
      "longitude_deg": -104.69905514691258,
      "height_km": 35777.97191677073,
      "semi_major_axis_km": 42164.64561783097,
      "eccentricity": 0.000195,
      "inclination_deg": 0.1702,
      "raan_deg": 85.3247,
      "arg_perigee_deg": 242.2784,
      "mean_anomaly_deg": 348.2112,
      "mean_motion_rev_day": 1.00272093
    },
    {
      "epoch": "2026-04-02T20:55:36.262272Z",
      "apogee_km": 35794.66988450952,
      "perigee_km": 35778.33277374252,
      "latitude_deg": -0.1277680727298186,
      "longitude_deg": -104.67380501873272,
      "height_km": 35783.479237783795,
      "semi_major_axis_km": 42164.63832912603,
      "eccentricity": 0.00019373,
      "inclination_deg": 0.1708,
      "raan_deg": 85.3169,
      "arg_perigee_deg": 242.8506,
      "mean_anomaly_deg": 72.2417,
      "mean_motion_rev_day": 1.00272119
    },
    {
      "epoch": "2026-04-03T15:45:12.909024Z",
      "apogee_km": 35794.50983846203,
      "perigee_km": 35778.461982982204,
      "latitude_deg": -0.12098723959849075,
      "longitude_deg": -104.69798885915549,
      "height_km": 35778.01660482326,
      "semi_major_axis_km": 42164.622910722115,
      "eccentricity": 0.0001903,
      "inclination_deg": 0.1726,
      "raan_deg": 85.3027,
      "arg_perigee_deg": 244.2913,
      "mean_anomaly_deg": 353.9926,
      "mean_motion_rev_day": 1.00272174
    },
    {
      "epoch": "2026-04-04T05:26:36.673440Z",
      "apogee_km": 35794.3638459822,
      "perigee_km": 35778.57826001933,
      "latitude_deg": 0.15462771764348038,
      "longitude_deg": -104.70263757412201,
      "height_km": 35793.4381627278,
      "semi_major_axis_km": 42164.60805300077,
      "eccentricity": 0.00018719,
      "inclination_deg": 0.1738,
      "raan_deg": 85.299,
      "arg_perigee_deg": 245.6791,
      "mean_anomaly_deg": 198.5207,
      "mean_motion_rev_day": 1.00272227
    },
    {
      "epoch": "2026-04-05T12:14:50.341632Z",
      "apogee_km": 35794.11849070308,
      "perigee_km": 35778.789975206244,
      "latitude_deg": -0.001747297304634521,
      "longitude_deg": -104.71356055834141,
      "height_km": 35782.16690207828,
      "semi_major_axis_km": 42164.59123295466,
      "eccentricity": 0.00018177,
      "inclination_deg": 0.1754,
      "raan_deg": 85.2811,
      "arg_perigee_deg": 247.7312,
      "mean_anomaly_deg": 299.8111,
      "mean_motion_rev_day": 1.00272287
    },
    {
      "epoch": "2026-04-05T15:40:17.731200Z",
      "apogee_km": 35794.10401134362,
      "perigee_km": 35778.80669723748,
      "latitude_deg": -0.12722019538589535,
      "longitude_deg": -104.69868288543954,
      "height_km": 35778.4094812754,
      "semi_major_axis_km": 42164.59235429055,
      "eccentricity": 0.0001814,
      "inclination_deg": 0.1757,
      "raan_deg": 85.2897,
      "arg_perigee_deg": 247.8363,
      "mean_anomaly_deg": 351.2025,
      "mean_motion_rev_day": 1.00272283
    },
    {
      "epoch": "2026-04-06T04:10:38.692416Z",
      "apogee_km": 35793.955895906176,
      "perigee_km": 35778.93687130493,
      "latitude_deg": 0.14166832053182735,
      "longitude_deg": -104.69442100879166,
      "height_km": 35793.42417951075,
      "semi_major_axis_km": 42164.58338360555,
      "eccentricity": 0.0001781,
      "inclination_deg": 0.1769,
      "raan_deg": 85.2947,
      "arg_perigee_deg": 248.764,
      "mean_anomaly_deg": 178.3717,
      "mean_motion_rev_day": 1.00272315
    },
    {
      "epoch": "2026-04-07T13:52:38.241696Z",
      "apogee_km": 35793.84795028764,
      "perigee_km": 35779.04818092961,
      "latitude_deg": -0.07588385553394646,
      "longitude_deg": -104.70487774378907,
      "height_km": 35779.97852023608,
      "semi_major_axis_km": 42164.585065608626,
      "eccentricity": 0.0001755,
      "inclination_deg": 0.1721,
      "raan_deg": 85.0116,
      "arg_perigee_deg": 250.2853,
      "mean_anomaly_deg": 324.0187,
      "mean_motion_rev_day": 1.00272309
    },
    {
      "epoch": "2026-04-07T13:52:38.243424Z",
      "apogee_km": 35793.84752864178,
      "perigee_km": 35779.048602575465,
      "latitude_deg": -0.07588385720853362,
      "longitude_deg": -104.70488428607229,
      "height_km": 35779.97886037647,
      "semi_major_axis_km": 42164.585065608626,
      "eccentricity": 0.00017549,
      "inclination_deg": 0.1721,
      "raan_deg": 85.0116,
      "arg_perigee_deg": 250.2853,
      "mean_anomaly_deg": 324.0187,
      "mean_motion_rev_day": 1.00272309
    },
    {
      "epoch": "2026-04-08T13:50:10.735296Z",
      "apogee_km": 35793.66635145935,
      "perigee_km": 35779.23762910688,
      "latitude_deg": -0.0792095600986698,
      "longitude_deg": -104.70320102287792,
      "height_km": 35780.181951994884,
      "semi_major_axis_km": 42164.58899028312,
      "eccentricity": 0.0001711,
      "inclination_deg": 0.1744,
      "raan_deg": 85.0353,
      "arg_perigee_deg": 251.3169,
      "mean_anomaly_deg": 323.3348,
      "mean_motion_rev_day": 1.00272295
    }
  ]
}